start=new Date('2022-04-27T00:00:00.000Z').valueOf();
sats=[{"REF_FRAME":"TEME","RCS_SIZE":"LARGE","CLASSIFICATION_TYPE":"U","COUNTRY_CODE":"US","PERIAPSIS":"546.226","ELEMENT_SET_NO":"999","RA_OF_ASC_NODE":"13.9723","ECCENTRICITY":"0.00013910","MEAN_ANOMALY":"284.0994","LAUNCH_DATE":"2021-04-07","OBJECT_ID":"2021-027AC","INCLINATION":"53.0566","BSTAR":"0.00051081000000","APOAPSIS":"548.153","FILE":"3417474","CENTER_NAME":"EARTH","SITE":"AFETR","EPOCH":"2022-04-26T21:04:55.983072","TIME_SYSTEM":"UTC","DECAY_DATE":null,"SEMIMAJOR_AXIS":"6925.324","MEAN_MOTION_DOT":"0.00007337","EPHEMERIS_TYPE":"0","MEAN_MOTION_DDOT":"0.0000000000000","OBJECT_TYPE":"PAYLOAD","OBJECT_NAME":"STARLINK-2458","TLE_LINE2":"2 48118  53.0566  13.9723 0001391  76.0150 284.0994 15.06407892 59751","REV_AT_EPOCH":"5975","MEAN_MOTION":"15.06407892","PERIOD":"95.592","ARG_OF_PERICENTER":"76.0150","NORAD_CAT_ID":"48118","TLE_LINE1":"1 48118U 21027AC  22116.87842573  .00007337  00000-0  51081-3 0  9998","GP_ID":"202111303","MEAN_ELEMENT_THEORY":"SGP4"},{"SEMIMAJOR_AXIS":"6925.335","DECAY_DATE":null,"TIME_SYSTEM":"UTC","EPOCH":"2022-04-26T20:59:37.072032","EPHEMERIS_TYPE":"0","MEAN_MOTION_DDOT":"0.0000000000000","MEAN_MOTION_DOT":"0.00002152","MEAN_MOTION":"15.06404474","REV_AT_EPOCH":"5974","TLE_LINE2":"2 48119  53.0572  13.9858 0001488  63.8406 296.2736 15.06404474 59744","OBJECT_NAME":"STARLINK-2459","OBJECT_TYPE":"PAYLOAD","MEAN_ELEMENT_THEORY":"SGP4","GP_ID":"202110050","NORAD_CAT_ID":"48119","TLE_LINE1":"1 48119U 21027AD  22116.87473463  .00002152  00000-0  16332-3 0  9997","ARG_OF_PERICENTER":"63.8406","PERIOD":"95.592","PERIAPSIS":"546.169","COUNTRY_CODE":"US","CLASSIFICATION_TYPE":"U","RCS_SIZE":"LARGE","REF_FRAME":"TEME","RA_OF_ASC_NODE":"13.9858","ELEMENT_SET_NO":"999","FILE":"3417474","APOAPSIS":"548.230","BSTAR":"0.00016332000000","INCLINATION":"53.0572","OBJECT_ID":"2021-027AD","LAUNCH_DATE":"2021-04-07","MEAN_ANOMALY":"296.2736","ECCENTRICITY":"0.00014880","SITE":"AFETR","CENTER_NAME":"EARTH"},{"SITE":"AFETR","CENTER_NAME":"EARTH","FILE":"3417200","APOAPSIS":"548.196","BSTAR":"0.00002252700000","INCLINATION":"53.0562","OBJECT_ID":"2021-027AE","ECCENTRICITY":"0.00014170","MEAN_ANOMALY":"291.8048","LAUNCH_DATE":"2021-04-07","RA_OF_ASC_NODE":"35.7578","ELEMENT_SET_NO":"999","CLASSIFICATION_TYPE":"U","RCS_SIZE":"LARGE","COUNTRY_CODE":"US","PERIAPSIS":"546.233","REF_FRAME":"TEME","MEAN_ELEMENT_THEORY":"SGP4","GP_ID":"202082239","ARG_OF_PERICENTER":"68.3092","PERIOD":"95.592","TLE_LINE1":"1 48120U 21027AE  22116.48218295  .00000054  00000-0  22527-4 0  9999","NORAD_CAT_ID":"48120","REV_AT_EPOCH":"5901","MEAN_MOTION":"15.06399762","TLE_LINE2":"2 48120  53.0562  35.7578 0001417  68.3092 291.8048 15.06399762 59019","OBJECT_NAME":"STARLINK-2460","OBJECT_TYPE":"PAYLOAD","MEAN_MOTION_DDOT":"0.0000000000000","EPHEMERIS_TYPE":"0","MEAN_MOTION_DOT":"0.00000054","DECAY_DATE":null,"SEMIMAJOR_AXIS":"6925.349","TIME_SYSTEM":"UTC","EPOCH":"2022-04-26T11:34:20.606880"},{"COUNTRY_CODE":"US","PERIAPSIS":"546.198","CLASSIFICATION_TYPE":"U","RCS_SIZE":"LARGE","REF_FRAME":"TEME","ELEMENT_SET_NO":"999","RA_OF_ASC_NODE":"24.0989","BSTAR":"0.00036613000000","INCLINATION":"53.0548","FILE":"3417474","APOAPSIS":"548.216","LAUNCH_DATE":"2021-04-07","MEAN_ANOMALY":"278.0517","ECCENTRICITY":"0.00014570","OBJECT_ID":"2021-027AF","SITE":"AFETR","CENTER_NAME":"EARTH","TIME_SYSTEM":"UTC","SEMIMAJOR_AXIS":"6925.342","DECAY_DATE":null,"EPOCH":"2022-04-26T20:26:27.506400","MEAN_MOTION_DDOT":"0.0000000000000","EPHEMERIS_TYPE":"0","MEAN_MOTION_DOT":"0.00005176","TLE_LINE2":"2 48121  53.0548  24.0989 0001457  82.0638 278.0517 15.06402200 59609","MEAN_MOTION":"15.06402200","REV_AT_EPOCH":"5960","OBJECT_TYPE":"PAYLOAD","OBJECT_NAME":"STARLINK-2462","MEAN_ELEMENT_THEORY":"SGP4","GP_ID":"202110551","NORAD_CAT_ID":"48121","TLE_LINE1":"1 48121U 21027AF  22116.85170725  .00005176  00000-0  36613-3 0  9996","PERIOD":"95.592","ARG_OF_PERICENTER":"82.0638"},{"TLE_LINE1":"1 48122U 21027AG  22116.85306203  .00005800  00000-0  40790-3 0  9994","NORAD_CAT_ID":"48122","ARG_OF_PERICENTER":"63.3540","PERIOD":"95.592","MEAN_ELEMENT_THEORY":"SGP4","GP_ID":"202110803","OBJECT_NAME":"STARLINK-2463","OBJECT_TYPE":"PAYLOAD","MEAN_MOTION":"15.06402713","REV_AT_EPOCH":"5968","TLE_LINE2":"2 48122  53.0568  19.0975 0001389  63.3540 296.7592 15.06402713 59686","MEAN_MOTION_DOT":"0.00005800","MEAN_MOTION_DDOT":"0.0000000000000","EPHEMERIS_TYPE":"0","EPOCH":"2022-04-26T20:28:24.559392","SEMIMAJOR_AXIS":"6925.340","DECAY_DATE":null,"TIME_SYSTEM":"UTC","CENTER_NAME":"EARTH","SITE":"AFETR","OBJECT_ID":"2021-027AG","LAUNCH_DATE":"2021-04-07","ECCENTRICITY":"0.00013890","MEAN_ANOMALY":"296.7592","FILE":"3417474","APOAPSIS":"548.167","BSTAR":"0.00040790000000","INCLINATION":"53.0568","RA_OF_ASC_NODE":"19.0975","ELEMENT_SET_NO":"999","REF_FRAME":"TEME","PERIAPSIS":"546.243","COUNTRY_CODE":"US","CLASSIFICATION_TYPE":"U","RCS_SIZE":"LARGE"},{"TLE_LINE2":"2 48123  53.0579  14.0562 0001915  76.0310 284.0892 15.06429005 59751","REV_AT_EPOCH":"5975","MEAN_MOTION":"15.06429005","OBJECT_TYPE":"PAYLOAD","OBJECT_NAME":"STARLINK-2464","MEAN_ELEMENT_THEORY":"SGP4","GP_ID":"202109550","PERIOD":"95.590","ARG_OF_PERICENTER":"76.0310","NORAD_CAT_ID":"48123","TLE_LINE1":"1 48123U 21027AH  22116.85997925 -.00003387  00000-0 -20841-3 0  9997","TIME_SYSTEM":"UTC","DECAY_DATE":null,"SEMIMAJOR_AXIS":"6925.260","EPOCH":"2022-04-26T20:38:22.207200","EPHEMERIS_TYPE":"0","MEAN_MOTION_DDOT":"0.0000000000000","MEAN_MOTION_DOT":"-0.00003387","INCLINATION":"53.0579","BSTAR":"-0.00020841000000","FILE":"3417474","APOAPSIS":"548.451","ECCENTRICITY":"0.00019150","MEAN_ANOMALY":"284.0892","LAUNCH_DATE":"2021-04-07","OBJECT_ID":"2021-027AH","SITE":"AFETR","CENTER_NAME":"EARTH","CLASSIFICATION_TYPE":"U","RCS_SIZE":"LARGE","PERIAPSIS":"545.798","COUNTRY_CODE":"US","REF_FRAME":"TEME","ELEMENT_SET_NO":"999","RA_OF_ASC_NODE":"14.0562"},{"COUNTRY_CODE":"US","PERIAPSIS":"546.178","RCS_SIZE":"LARGE","CLASSIFICATION_TYPE":"U","REF_FRAME":"TEME","RA_OF_ASC_NODE":"24.0720","ELEMENT_SET_NO":"999","APOAPSIS":"548.252","FILE":"3417474","BSTAR":"0.00014475000000","INCLINATION":"53.0558","OBJECT_ID":"2021-027AJ","LAUNCH_DATE":"2021-04-07","MEAN_ANOMALY":"290.4252","ECCENTRICITY":"0.00014970","SITE":"AFETR","CENTER_NAME":"EARTH","SEMIMAJOR_AXIS":"6925.350","DECAY_DATE":null,"TIME_SYSTEM":"UTC","EPOCH":"2022-04-26T20:37:04.109376","MEAN_MOTION_DDOT":"0.0000000000000","EPHEMERIS_TYPE":"0","MEAN_MOTION_DOT":"0.00001875","MEAN_MOTION":"15.06399485","REV_AT_EPOCH":"5960","TLE_LINE2":"2 48124  53.0558  24.0720 0001497  69.6898 290.4252 15.06399485 59603","OBJECT_NAME":"STARLINK-2465","OBJECT_TYPE":"PAYLOAD","GP_ID":"202109797","MEAN_ELEMENT_THEORY":"SGP4","NORAD_CAT_ID":"48124","TLE_LINE1":"1 48124U 21027AJ  22116.85907534  .00001875  00000-0  14475-3 0  9999","PERIOD":"95.592","ARG_OF_PERICENTER":"69.6898"},{"MEAN_MOTION_DOT":"0.00007108","MEAN_MOTION_DDOT":"0.0000000000000","EPHEMERIS_TYPE":"0","EPOCH":"2022-04-26T21:59:17.939040","DECAY_DATE":null,"SEMIMAJOR_AXIS":"6925.322","TIME_SYSTEM":"UTC","PERIOD":"95.592","ARG_OF_PERICENTER":"74.0608","TLE_LINE1":"1 48125U 21027AK  22116.91617985  .00007108  00000-0  49550-3 0  9992","NORAD_CAT_ID":"48125","MEAN_ELEMENT_THEORY":"SGP4","GP_ID":"202111052","OBJECT_NAME":"STARLINK-2466","OBJECT_TYPE":"PAYLOAD","REV_AT_EPOCH":"5948","MEAN_MOTION":"15.06408818","TLE_LINE2":"2 48125  53.0556  33.8087 0001492  74.0608 286.0545 15.06408818 59483","RA_OF_ASC_NODE":"33.8087","ELEMENT_SET_NO":"999","REF_FRAME":"TEME","CLASSIFICATION_TYPE":"U","RCS_SIZE":"LARGE","PERIAPSIS":"546.153","COUNTRY_CODE":"US","CENTER_NAME":"EARTH","SITE":"AFETR","OBJECT_ID":"2021-027AK","ECCENTRICITY":"0.00014920","MEAN_ANOMALY":"286.0545","LAUNCH_DATE":"2021-04-07","APOAPSIS":"548.220","FILE":"3417474","INCLINATION":"53.0556","BSTAR":"0.00049550000000"},{"GP_ID":"202111304","MEAN_ELEMENT_THEORY":"SGP4","NORAD_CAT_ID":"48126","TLE_LINE1":"1 48126U 21027AL  22116.89317257  .00004307  00000-0  30781-3 0  9993","ARG_OF_PERICENTER":"73.2466","PERIOD":"95.592","MEAN_MOTION":"15.06402570","REV_AT_EPOCH":"5976","TLE_LINE2":"2 48126  53.0561  13.8997 0001513  73.2466 286.8689 15.06402570 59762","OBJECT_NAME":"STARLINK-2467","OBJECT_TYPE":"PAYLOAD","MEAN_MOTION_DDOT":"0.0000000000000","EPHEMERIS_TYPE":"0","MEAN_MOTION_DOT":"0.00004307","SEMIMAJOR_AXIS":"6925.341","DECAY_DATE":null,"TIME_SYSTEM":"UTC","EPOCH":"2022-04-26T21:26:10.110048","SITE":"AFETR","CENTER_NAME":"EARTH","APOAPSIS":"548.253","FILE":"3417474","INCLINATION":"53.0561","BSTAR":"0.00030781000000","OBJECT_ID":"2021-027AL","LAUNCH_DATE":"2021-04-07","MEAN_ANOMALY":"286.8689","ECCENTRICITY":"0.00015130","RA_OF_ASC_NODE":"13.8997","ELEMENT_SET_NO":"999","PERIAPSIS":"546.158","COUNTRY_CODE":"US","RCS_SIZE":"LARGE","CLASSIFICATION_TYPE":"U","REF_FRAME":"TEME"},{"RA_OF_ASC_NODE":"35.1488","ELEMENT_SET_NO":"999","REF_FRAME":"TEME","CLASSIFICATION_TYPE":"U","RCS_SIZE":"LARGE","COUNTRY_CODE":"US","PERIAPSIS":"545.959","CENTER_NAME":"EARTH","SITE":"AFETR","OBJECT_ID":"2021-027AM","MEAN_ANOMALY":"314.2523","ECCENTRICITY":"0.00018170","LAUNCH_DATE":"2021-04-07","FILE":"3417474","APOAPSIS":"548.476","INCLINATION":"53.0561","BSTAR":"0.00010438000000","MEAN_MOTION_DOT":"0.00001273","EPHEMERIS_TYPE":"0","MEAN_MOTION_DDOT":"0.0000000000000","EPOCH":"2022-04-26T14:50:44.059200","DECAY_DATE":null,"SEMIMAJOR_AXIS":"6925.353","TIME_SYSTEM":"UTC","ARG_OF_PERICENTER":"45.8615","PERIOD":"95.592","TLE_LINE1":"1 48127U 21027AM  22116.61856550  .00001273  00000-0  10438-3 0  9994","NORAD_CAT_ID":"48127","GP_ID":"202110051","MEAN_ELEMENT_THEORY":"SGP4","OBJECT_NAME":"STARLINK-2468","OBJECT_TYPE":"PAYLOAD","REV_AT_EPOCH":"5943","MEAN_MOTION":"15.06398635","TLE_LINE2":"2 48127  53.0561  35.1488 0001817  45.8615 314.2523 15.06398635 59436"}];
